start=new Date('2021-09-03T00:00:00.000Z').valueOf();
sats=[{"SITE":"AFETR","NORAD_CAT_ID":"46703","TLE_LINE1":"1 46703U 20073AK  21245.81893000  .00001081  00000-0  91511-4 0  9996","MEAN_ELEMENT_THEORY":"SGP4","BSTAR":"0.00009151100000","FILE":"3107724","ARG_OF_PERICENTER":"83.1506","INCLINATION":"53.0558","TLE_LINE2":"2 46703  53.0558  83.6951 0001841  83.1506 276.9693 15.06386852 48601","OBJECT_TYPE":"PAYLOAD","REF_FRAME":"TEME","MEAN_MOTION_DDOT":"0.0000000000000","OBJECT_NAME":"STARLINK-1803","COUNTRY_CODE":"US","RA_OF_ASC_NODE":"83.6951","MEAN_MOTION":"15.06386852","PERIOD":"95.593","MEAN_MOTION_DOT":"0.00001081","LAUNCH_DATE":"2020-10-18","ECCENTRICITY":"0.00018410","OBJECT_ID":"2020-073AK","GP_ID":"183988914","RCS_SIZE":"LARGE","REV_AT_EPOCH":"4860","TIME_SYSTEM":"UTC","SEMIMAJOR_AXIS":"6925.389","PERIAPSIS":"545.979","APOAPSIS":"548.529","CLASSIFICATION_TYPE":"U","ELEMENT_SET_NO":"999","CENTER_NAME":"EARTH","EPHEMERIS_TYPE":"0","DECAY_DATE":null,"EPOCH":"2021-09-02T19:39:15.552000","MEAN_ANOMALY":"276.9693"},{"RA_OF_ASC_NODE":"63.7647","COUNTRY_CODE":"US","OBJECT_NAME":"STARLINK-1804","MEAN_MOTION":"15.06397185","PERIOD":"95.592","MEAN_MOTION_DOT":"0.00001850","TLE_LINE1":"1 46704U 20073AL  21245.79864780  .00001850  00000-0  14313-3 0  9995","NORAD_CAT_ID":"46704","MEAN_ELEMENT_THEORY":"SGP4","SITE":"AFETR","REF_FRAME":"TEME","MEAN_MOTION_DDOT":"0.0000000000000","FILE":"3107724","BSTAR":"0.00014313000000","ARG_OF_PERICENTER":"60.4243","OBJECT_TYPE":"PAYLOAD","TLE_LINE2":"2 46704  53.0544  63.7647 0006334  60.4243 299.7376 15.06397185 48888","INCLINATION":"53.0544","SEMIMAJOR_AXIS":"6925.357","PERIAPSIS":"542.836","APOAPSIS":"551.609","CLASSIFICATION_TYPE":"U","TIME_SYSTEM":"UTC","EPHEMERIS_TYPE":"0","DECAY_DATE":null,"MEAN_ANOMALY":"299.7376","EPOCH":"2021-09-02T19:10:03.169920","ELEMENT_SET_NO":"999","CENTER_NAME":"EARTH","GP_ID":"183988163","REV_AT_EPOCH":"4888","RCS_SIZE":"LARGE","OBJECT_ID":"2020-073AL","ECCENTRICITY":"0.00063340","LAUNCH_DATE":"2020-10-18"},{"TIME_SYSTEM":"UTC","PERIAPSIS":"545.869","APOAPSIS":"548.610","CLASSIFICATION_TYPE":"U","SEMIMAJOR_AXIS":"6925.375","CENTER_NAME":"EARTH","ELEMENT_SET_NO":"999","EPOCH":"2021-09-02T19:29:17.744352","MEAN_ANOMALY":"275.0769","EPHEMERIS_TYPE":"0","DECAY_DATE":null,"LAUNCH_DATE":"2020-10-18","ECCENTRICITY":"0.00019790","GP_ID":"183988413","RCS_SIZE":"LARGE","REV_AT_EPOCH":"4839","OBJECT_ID":"2020-073AM","OBJECT_NAME":"STARLINK-1805","COUNTRY_CODE":"US","RA_OF_ASC_NODE":"98.7157","MEAN_MOTION_DOT":"0.00001915","PERIOD":"95.593","MEAN_MOTION":"15.06391385","SITE":"AFETR","MEAN_ELEMENT_THEORY":"SGP4","NORAD_CAT_ID":"46705","TLE_LINE1":"1 46705U 20073AM  21245.81201093  .00001915  00000-0  14746-3 0  9993","OBJECT_TYPE":"PAYLOAD","TLE_LINE2":"2 46705  53.0538  98.7157 0001979  85.0446 275.0769 15.06391385 48399","INCLINATION":"53.0538","FILE":"3107724","ARG_OF_PERICENTER":"85.0446","BSTAR":"0.00014746000000","REF_FRAME":"TEME","MEAN_MOTION_DDOT":"0.0000000000000"},{"PERIAPSIS":"545.876","APOAPSIS":"548.634","CLASSIFICATION_TYPE":"U","SEMIMAJOR_AXIS":"6925.390","TIME_SYSTEM":"UTC","ELEMENT_SET_NO":"999","CENTER_NAME":"EARTH","EPHEMERIS_TYPE":"0","DECAY_DATE":null,"EPOCH":"2021-09-02T18:51:28.970208","MEAN_ANOMALY":"275.0734","LAUNCH_DATE":"2020-10-18","GP_ID":"183988664","RCS_SIZE":"LARGE","OBJECT_ID":"2020-073AN","REV_AT_EPOCH":"4860","ECCENTRICITY":"0.00019910","COUNTRY_CODE":"US","OBJECT_NAME":"STARLINK-1807","RA_OF_ASC_NODE":"83.8371","MEAN_MOTION":"15.06386378","PERIOD":"95.593","MEAN_MOTION_DOT":"0.00001057","SITE":"AFETR","TLE_LINE1":"1 46706U 20073AN  21245.78575197  .00001057  00000-0  89914-4 0  9996","NORAD_CAT_ID":"46706","MEAN_ELEMENT_THEORY":"SGP4","FILE":"3107724","ARG_OF_PERICENTER":"85.0482","BSTAR":"0.00008991400000","TLE_LINE2":"2 46706  53.0537  83.8371 0001991  85.0482 275.0734 15.06386378 48608","INCLINATION":"53.0537","OBJECT_TYPE":"PAYLOAD","MEAN_MOTION_DDOT":"0.0000000000000","REF_FRAME":"TEME"},{"TLE_LINE1":"1 46707U 20073AP  21245.77652862  .00003566  00000-0  25816-3 0  9998","NORAD_CAT_ID":"46707","MEAN_ELEMENT_THEORY":"SGP4","SITE":"AFETR","MEAN_MOTION_DDOT":"0.0000000000000","REF_FRAME":"TEME","ARG_OF_PERICENTER":"58.3007","FILE":"3107724","BSTAR":"0.00025816000000","TLE_LINE2":"2 46707  53.0560  63.8873 0007009  58.3007 301.8665 15.06402429 48889","OBJECT_TYPE":"PAYLOAD","INCLINATION":"53.0560","RA_OF_ASC_NODE":"63.8873","COUNTRY_CODE":"US","OBJECT_NAME":"STARLINK-1808","MEAN_MOTION":"15.06402429","PERIOD":"95.592","MEAN_MOTION_DOT":"0.00003566","OBJECT_ID":"2020-073AP","GP_ID":"183989415","RCS_SIZE":"LARGE","REV_AT_EPOCH":"4888","ECCENTRICITY":"0.00070090","LAUNCH_DATE":"2020-10-18","APOAPSIS":"552.060","PERIAPSIS":"542.352","SEMIMAJOR_AXIS":"6925.341","CLASSIFICATION_TYPE":"U","TIME_SYSTEM":"UTC","DECAY_DATE":null,"EPHEMERIS_TYPE":"0","MEAN_ANOMALY":"301.8665","EPOCH":"2021-09-02T18:38:12.072768","ELEMENT_SET_NO":"999","CENTER_NAME":"EARTH"},{"RA_OF_ASC_NODE":"63.8491","OBJECT_NAME":"STARLINK-1809","COUNTRY_CODE":"US","PERIOD":"95.592","MEAN_MOTION":"15.06394910","MEAN_MOTION_DOT":"0.00000942","NORAD_CAT_ID":"46708","TLE_LINE1":"1 46708U 20073AQ  21245.78021633  .00000942  00000-0  82233-4 0  9998","MEAN_ELEMENT_THEORY":"SGP4","SITE":"AFETR","MEAN_MOTION_DDOT":"0.0000000000000","REF_FRAME":"TEME","BSTAR":"0.00008223300000","FILE":"3107724","ARG_OF_PERICENTER":"59.0343","OBJECT_TYPE":"PAYLOAD","TLE_LINE2":"2 46708  53.0554  63.8491 0006629  59.0343 301.1296 15.06394910 48885","INCLINATION":"53.0554","TIME_SYSTEM":"UTC","APOAPSIS":"551.820","PERIAPSIS":"542.638","SEMIMAJOR_AXIS":"6925.364","CLASSIFICATION_TYPE":"U","DECAY_DATE":null,"EPHEMERIS_TYPE":"0","EPOCH":"2021-09-02T18:43:30.690912","MEAN_ANOMALY":"301.1296","ELEMENT_SET_NO":"999","CENTER_NAME":"EARTH","ECCENTRICITY":"0.00066290","GP_ID":"183987663","OBJECT_ID":"2020-073AQ","RCS_SIZE":"LARGE","REV_AT_EPOCH":"4888","LAUNCH_DATE":"2020-10-18"},{"RA_OF_ASC_NODE":"98.8748","OBJECT_NAME":"STARLINK-1810","COUNTRY_CODE":"US","MEAN_MOTION_DOT":"0.00002827","PERIOD":"95.592","MEAN_MOTION":"15.06400721","MEAN_ELEMENT_THEORY":"SGP4","NORAD_CAT_ID":"46709","TLE_LINE1":"1 46709U 20073AR  21245.77419494  .00002827  00000-0  20863-3 0  9998","SITE":"AFETR","MEAN_MOTION_DDOT":"0.0000000000000","REF_FRAME":"TEME","TLE_LINE2":"2 46709  53.0542  98.8748 0001982  79.6382 280.4831 15.06400721 48381","INCLINATION":"53.0542","OBJECT_TYPE":"PAYLOAD","ARG_OF_PERICENTER":"79.6382","FILE":"3107724","BSTAR":"0.00020863000000","TIME_SYSTEM":"UTC","PERIAPSIS":"545.839","SEMIMAJOR_AXIS":"6925.346","APOAPSIS":"548.584","CLASSIFICATION_TYPE":"U","MEAN_ANOMALY":"280.4831","EPOCH":"2021-09-02T18:34:50.442816","EPHEMERIS_TYPE":"0","DECAY_DATE":null,"CENTER_NAME":"EARTH","ELEMENT_SET_NO":"999","ECCENTRICITY":"0.00019820","GP_ID":"183987913","RCS_SIZE":"LARGE","OBJECT_ID":"2020-073AR","REV_AT_EPOCH":"4838","LAUNCH_DATE":"2020-10-18"},{"TIME_SYSTEM":"UTC","PERIAPSIS":"545.872","SEMIMAJOR_AXIS":"6925.366","APOAPSIS":"548.590","CLASSIFICATION_TYPE":"U","EPOCH":"2021-09-02T19:18:39.591360","MEAN_ANOMALY":"288.0145","DECAY_DATE":null,"EPHEMERIS_TYPE":"0","CENTER_NAME":"EARTH","ELEMENT_SET_NO":"999","ECCENTRICITY":"0.00019620","RCS_SIZE":"LARGE","GP_ID":"183989165","OBJECT_ID":"2020-073AS","REV_AT_EPOCH":"4839","LAUNCH_DATE":"2020-10-18","RA_OF_ASC_NODE":"98.7588","OBJECT_NAME":"STARLINK-1811","COUNTRY_CODE":"US","MEAN_MOTION_DOT":"0.00001422","PERIOD":"95.592","MEAN_MOTION":"15.06394380","MEAN_ELEMENT_THEORY":"SGP4","NORAD_CAT_ID":"46710","TLE_LINE1":"1 46710U 20073AS  21245.80462490  .00001422  00000-0  11436-3 0  9994","SITE":"AFETR","MEAN_MOTION_DDOT":"0.0000000000000","REF_FRAME":"TEME","TLE_LINE2":"2 46710  53.0549  98.7588 0001962  72.1058 288.0145 15.06394380 48393","INCLINATION":"53.0549","OBJECT_TYPE":"PAYLOAD","BSTAR":"0.00011436000000","FILE":"3107724","ARG_OF_PERICENTER":"72.1058"},{"ELEMENT_SET_NO":"999","CENTER_NAME":"EARTH","DECAY_DATE":null,"EPHEMERIS_TYPE":"0","MEAN_ANOMALY":"262.2820","EPOCH":"2021-09-02T18:40:52.734432","PERIAPSIS":"546.140","APOAPSIS":"548.401","SEMIMAJOR_AXIS":"6925.405","CLASSIFICATION_TYPE":"U","TIME_SYSTEM":"UTC","LAUNCH_DATE":"2020-10-18","RCS_SIZE":"LARGE","GP_ID":"183988915","OBJECT_ID":"2020-073AT","REV_AT_EPOCH":"4860","ECCENTRICITY":"0.00016320","MEAN_MOTION":"15.06381430","PERIOD":"95.593","MEAN_MOTION_DOT":"0.00000948","COUNTRY_CODE":"US","OBJECT_NAME":"STARLINK-1813","RA_OF_ASC_NODE":"83.8780","BSTAR":"0.00008259800000","FILE":"3107724","ARG_OF_PERICENTER":"97.8354","TLE_LINE2":"2 46711  53.0544  83.8780 0001632  97.8354 262.2820 15.06381430 48605","OBJECT_TYPE":"PAYLOAD","INCLINATION":"53.0544","MEAN_MOTION_DDOT":"0.0000000000000","REF_FRAME":"TEME","SITE":"AFETR","TLE_LINE1":"1 46711U 20073AT  21245.77838813  .00000948  00000-0  82598-4 0  9997","NORAD_CAT_ID":"46711","MEAN_ELEMENT_THEORY":"SGP4"},{"SITE":"AFETR","MEAN_ELEMENT_THEORY":"SGP4","NORAD_CAT_ID":"46712","TLE_LINE1":"1 46712U 20073AU  21245.81061047  .00000787  00000-0  71761-4 0  9991","TLE_LINE2":"2 46712  53.0552  83.7342 0001982  85.2993 274.8222 15.06386412 48606","OBJECT_TYPE":"PAYLOAD","INCLINATION":"53.0552","ARG_OF_PERICENTER":"85.2993","FILE":"3107724","BSTAR":"0.00007176100000","MEAN_MOTION_DDOT":"0.0000000000000","REF_FRAME":"TEME","OBJECT_NAME":"STARLINK-1814","COUNTRY_CODE":"US","RA_OF_ASC_NODE":"83.7342","MEAN_MOTION_DOT":"0.00000787","PERIOD":"95.593","MEAN_MOTION":"15.06386412","LAUNCH_DATE":"2020-10-18","ECCENTRICITY":"0.00019820","RCS_SIZE":"LARGE","GP_ID":"183988164","OBJECT_ID":"2020-073AU","REV_AT_EPOCH":"4860","TIME_SYSTEM":"UTC","PERIAPSIS":"545.883","APOAPSIS":"548.628","SEMIMAJOR_AXIS":"6925.390","CLASSIFICATION_TYPE":"U","CENTER_NAME":"EARTH","ELEMENT_SET_NO":"999","MEAN_ANOMALY":"274.8222","EPOCH":"2021-09-02T19:27:16.744608","DECAY_DATE":null,"EPHEMERIS_TYPE":"0"}];
